<?xml version="1.0" encoding="UTF-8"?>
<kml xmlns="http://www.opengis.net/kml/2.2">
  <Document>
    <name>DEPOK</name>
    <Style id="poly-000000-1200-77-nodesc-normal">
      <LineStyle>
        <color>ff000000</color>
        <width>1.2</width>
      </LineStyle>
      <PolyStyle>
        <color>4d000000</color>
        <fill>1</fill>
        <outline>1</outline>
      </PolyStyle>
      <BalloonStyle>
        <text><![CDATA[<h3>$[name]</h3>]]></text>
      </BalloonStyle>
    </Style>
    <Style id="poly-000000-1200-77-nodesc-highlight">
      <LineStyle>
        <color>ff000000</color>
        <width>1.8</width>
      </LineStyle>
      <PolyStyle>
        <color>4d000000</color>
        <fill>1</fill>
        <outline>1</outline>
      </PolyStyle>
      <BalloonStyle>
        <text><![CDATA[<h3>$[name]</h3>]]></text>
      </BalloonStyle>
    </Style>
    <StyleMap id="poly-000000-1200-77-nodesc">
      <Pair>
        <key>normal</key>
        <styleUrl>#poly-000000-1200-77-nodesc-normal</styleUrl>
      </Pair>
      <Pair>
        <key>highlight</key>
        <styleUrl>#poly-000000-1200-77-nodesc-highlight</styleUrl>
      </Pair>
    </StyleMap>
    <Placemark>
      <name>Kota Administrasi Depok</name>
      <styleUrl>#poly-000000-1200-77-nodesc</styleUrl>
      <Polygon>
        <outerBoundaryIs>
          <LinearRing>
            <tessellate>1</tessellate>
            <coordinates>
              106.7534213,-6.361442,0
              106.7467629,-6.3622692,0
              106.724538,-6.3602324,0
              106.7249723,-6.3670668,0
              106.7309493,-6.416446,0
              106.7334461,-6.4321604,0
              106.7342785,-6.4503554,0
              106.7838002,-6.4495283,0
              106.8162598,-6.4722711,0
              106.8216541,-6.4663995,0
              106.8244032,-6.4595482,0
              106.8245775,-6.4540615,0
              106.8511226,-6.4613288,0
              106.8741044,-6.4482878,0
              106.8930548,-6.4264303,0
              106.8995324,-6.4256988,0
              106.8972553,-6.4153293,0
              106.8969926,-6.4007312,0
              106.8996471,-6.4232672,0
              106.9004134,-6.4193624,0
              106.9034114,-6.4177604,0
              106.9038344,-6.4193995,0
              106.9060415,-6.414868,0
              106.9079604,-6.4152249,0
              106.908506,-6.4112319,0
              106.9107529,-6.4132868,0
              106.914974,-6.4131241,0
              106.9172209,-6.4086114,0
              106.9152621,-6.4066575,0
              106.9168805,-6.4042247,0
              106.9182289,-6.4005532,0
              106.9161192,-6.3995221,0
              106.9191094,-6.3955834,0
              106.9212589,-6.3968609,0
              106.9227216,-6.3942149,0
              106.9220423,-6.390458,0
              106.9273783,-6.386015,0
              106.9268923,-6.3817351,0
              106.9171376,-6.3661508,0
              106.9067266,-6.3626196,0
              106.8878373,-6.3688865,0
              106.8801594,-6.3724046,0
              106.8728247,-6.3725105,0
              106.856591,-6.3734037,0
              106.8474709,-6.337867,0
              106.8316573,-6.354411,0
              106.7922857,-6.3634467,0
              106.7914534,-6.3522798,0
              106.8100175,-6.3147046,0
              106.7800548,-6.3167727,0
              106.7738126,-6.3581333,0
              106.7534213,-6.361442,0
            </coordinates>
          </LinearRing>
        </outerBoundaryIs>
      </Polygon>
    </Placemark>
  </Document>
</kml>
