<?xml version="1.0" encoding="UTF-8"?>
<kml xmlns="http://www.opengis.net/kml/2.2">
  <Document>
    <name>DIY YOGYAKARTA</name>
    <Style id="poly-000000-1200-77-nodesc-normal">
      <LineStyle>
        <color>ff000000</color>
        <width>1.2</width>
      </LineStyle>
      <PolyStyle>
        <color>4d000000</color>
        <fill>1</fill>
        <outline>1</outline>
      </PolyStyle>
      <BalloonStyle>
        <text><![CDATA[<h3>$[name]</h3>]]></text>
      </BalloonStyle>
    </Style>
    <Style id="poly-000000-1200-77-nodesc-highlight">
      <LineStyle>
        <color>ff000000</color>
        <width>1.8</width>
      </LineStyle>
      <PolyStyle>
        <color>4d000000</color>
        <fill>1</fill>
        <outline>1</outline>
      </PolyStyle>
      <BalloonStyle>
        <text><![CDATA[<h3>$[name]</h3>]]></text>
      </BalloonStyle>
    </Style>
    <StyleMap id="poly-000000-1200-77-nodesc">
      <Pair>
        <key>normal</key>
        <styleUrl>#poly-000000-1200-77-nodesc-normal</styleUrl>
      </Pair>
      <Pair>
        <key>highlight</key>
        <styleUrl>#poly-000000-1200-77-nodesc-highlight</styleUrl>
      </Pair>
    </StyleMap>
    <Placemark>
      <name>DIY YOGYAKARTA</name>
      <styleUrl>#poly-000000-1200-77-nodesc</styleUrl>
      <Polygon>
        <outerBoundaryIs>
          <LinearRing>
            <tessellate>1</tessellate>
            <coordinates>
              110.0269993,-7.8953282,0
              110.3615829,-8.053584,0
              110.5280423,-8.1392803,0
              110.6994957,-8.1985977,0
              110.8260049,-8.1920072,0
              110.8193465,-8.1557581,0
              110.7977068,-8.1689401,0
              110.792713,-8.1359846,0
              110.7843901,-8.0914904,0
              110.7544273,-8.0403984,0
              110.7744024,-7.9893,0
              110.7727379,-7.9217085,0
              110.7860546,-7.8656486,0
              110.7777317,-7.8211249,0
              110.756092,-7.8161776,0
              110.7277938,-7.7996859,0
              110.6911728,-7.8079318,0
              110.6628746,-7.8029843,0
              110.6096077,-7.8046335,0
              110.5813095,-7.7980367,0
              110.5696573,-7.7782458,0
              110.5313716,-7.7996859,0
              110.493086,-7.7469084,0
              110.4747753,-7.6776278,0
              110.4398188,-7.5373826,0
              110.3732351,-7.6017361,0
              110.2900053,-7.6743284,0
              110.2617072,-7.6908249,0
              110.2483904,-7.6479326,0
              110.1734836,-7.6495824,0
              110.118552,-7.6611307,0
              110.1318688,-7.7023722,0
              110.118552,-7.7716487,0
              110.070279,-7.7996859,0
              110.056962,-7.8343176,0
              110.0453099,-7.8705953,0
              110.0269993,-7.8953282,0
            </coordinates>
          </LinearRing>
        </outerBoundaryIs>
      </Polygon>
    </Placemark>
  </Document>
</kml>
