<?xml version="1.0" encoding="UTF-8"?>
<kml xmlns="http://www.opengis.net/kml/2.2">
  <Document>
    <name>DKI JAKARTA</name>
    <Style id="poly-000000-1200-77-nodesc-normal">
      <LineStyle>
        <color>ff000000</color>
        <width>1.2</width>
      </LineStyle>
      <PolyStyle>
        <color>4d000000</color>
        <fill>1</fill>
        <outline>1</outline>
      </PolyStyle>
      <BalloonStyle>
        <text><![CDATA[<h3>$[name]</h3>]]></text>
      </BalloonStyle>
    </Style>
    <Style id="poly-000000-1200-77-nodesc-highlight">
      <LineStyle>
        <color>ff000000</color>
        <width>1.8</width>
      </LineStyle>
      <PolyStyle>
        <color>4d000000</color>
        <fill>1</fill>
        <outline>1</outline>
      </PolyStyle>
      <BalloonStyle>
        <text><![CDATA[<h3>$[name]</h3>]]></text>
      </BalloonStyle>
    </Style>
    <StyleMap id="poly-000000-1200-77-nodesc">
      <Pair>
        <key>normal</key>
        <styleUrl>#poly-000000-1200-77-nodesc-normal</styleUrl>
      </Pair>
      <Pair>
        <key>highlight</key>
        <styleUrl>#poly-000000-1200-77-nodesc-highlight</styleUrl>
      </Pair>
    </StyleMap>
    <Placemark>
      <name>JAKARTA</name>
      <styleUrl>#poly-000000-1200-77-nodesc</styleUrl>
      <Polygon>
        <outerBoundaryIs>
          <LinearRing>
            <tessellate>1</tessellate>
            <coordinates>
              106.6894969,-6.1359253,0
              106.6874162,-6.1429593,0
              106.6886646,-6.1516481,0
              106.6878323,-6.1611644,0
              106.6919938,-6.1739903,0
              106.7086398,-6.1810238,0
              106.7182112,-6.1901257,0
              106.7240373,-6.1901257,0
              106.7215404,-6.2046058,0
              106.7152982,-6.2215677,0
              106.7269503,-6.2248773,0
              106.7415155,-6.2294279,0
              106.7477578,-6.238529,0
              106.7506708,-6.24763,0
              106.7519193,-6.2563172,0
              106.7494224,-6.2720364,0
              106.7589938,-6.274932,0
              106.7635714,-6.2852733,0
              106.7677329,-6.2935462,0
              106.7714782,-6.2985098,0
              106.7785528,-6.3121597,0
              106.7843789,-6.3179504,0
              106.8056025,-6.318364,0
              106.8022732,-6.3336678,0
              106.7914534,-6.3522798,0
              106.7922857,-6.3634467,0
              106.8047702,-6.3663419,0
              106.8143416,-6.3593109,0
              106.8372298,-6.355175,0
              106.8380621,-6.3394582,0
              106.851795,-6.3369766,0
              106.857621,-6.3560022,0
              106.8709378,-6.3547613,0
              106.8792608,-6.3659282,0
              106.8963229,-6.3717184,0
              106.9067266,-6.3626196,0
              106.9127191,-6.3642532,0
              106.9204595,-6.3315997,0
              106.9212918,-6.3187776,0
              106.9204595,-6.3014053,0
              106.9083912,-6.2931325,0
              106.9071427,-6.2753456,0
              106.9046459,-6.2616948,0
              106.9175464,-6.2525941,0
              106.9208757,-6.2559035,0
              106.9437638,-6.2554898,0
              106.9458446,-6.2385291,0
              106.9487576,-6.2223951,0
              106.9649874,-6.2124663,0
              106.9683166,-6.1979864,0
              106.9724781,-6.1847473,0
              106.9716458,-6.1462693,0
              106.9712296,-6.1077886,0
              106.9500061,-6.106961,0
              106.9100558,-6.1015817,0
              106.8767639,-6.1040645,0
              106.8438881,-6.1206158,0
              106.811954,-6.113297,0
              106.8028221,-6.095181,0
              106.7919906,-6.092865,0
              106.790523,-6.0992173,0
              106.7906003,-6.1047162,0
              106.7415155,-6.1065472,0
              106.726118,-6.0904093,0
              106.7003168,-6.0957886,0
              106.6890808,-6.0962024,0
              106.687,-6.1061334,0
              106.6982361,-6.1148229,0
              106.687,-6.1255811,0
              106.6894969,-6.1359253,0
            </coordinates>
          </LinearRing>
        </outerBoundaryIs>
      </Polygon>
    </Placemark>
  </Document>
</kml>
