<?xml version="1.0" encoding="UTF-8"?>
<kml xmlns="http://www.opengis.net/kml/2.2">
  <Document>
    <name>Ragunan Zoo</name>
    <Style id="poly-000000-1200-77-nodesc-normal">
      <LineStyle>
        <color>ff000000</color>
        <width>1.2</width>
      </LineStyle>
      <PolyStyle>
        <color>4d000000</color>
        <fill>1</fill>
        <outline>1</outline>
      </PolyStyle>
      <BalloonStyle>
        <text><![CDATA[<h3>$[name]</h3>]]></text>
      </BalloonStyle>
    </Style>
    <Style id="poly-000000-1200-77-nodesc-highlight">
      <LineStyle>
        <color>ff000000</color>
        <width>1.8</width>
      </LineStyle>
      <PolyStyle>
        <color>4d000000</color>
        <fill>1</fill>
        <outline>1</outline>
      </PolyStyle>
      <BalloonStyle>
        <text><![CDATA[<h3>$[name]</h3>]]></text>
      </BalloonStyle>
    </Style>
    <StyleMap id="poly-000000-1200-77-nodesc">
      <Pair>
        <key>normal</key>
        <styleUrl>#poly-000000-1200-77-nodesc-normal</styleUrl>
      </Pair>
      <Pair>
        <key>highlight</key>
        <styleUrl>#poly-000000-1200-77-nodesc-highlight</styleUrl>
      </Pair>
    </StyleMap>
    <Placemark>
      <name>Ragunan</name>
      <styleUrl>#poly-000000-1200-77-nodesc</styleUrl>
      <Polygon>
        <outerBoundaryIs>
          <LinearRing>
            <tessellate>1</tessellate>
            <coordinates>
              106.8162278,-6.305101,0
              106.8169041,-6.3067814,0
              106.8164879,-6.3079447,0
              106.8158897,-6.30841,0
              106.8154996,-6.3096509,0
              106.8164359,-6.3107108,0
              106.8171642,-6.3108401,0
              106.8176733,-6.3114528,0
              106.8177533,-6.3140276,0
              106.8163985,-6.3143126,0
              106.8165029,-6.3168157,0
              106.821604,-6.3175563,0
              106.8246451,-6.3177638,0
              106.8251113,-6.3147294,0
              106.8246578,-6.3134149,0
              106.8254059,-6.3132094,0
              106.8245846,-6.3120305,0
              106.8256718,-6.3121721,0
              106.8265015,-6.3114605,0
              106.8268917,-6.3088237,0
              106.8244728,-6.3085393,0
              106.8247069,-6.3066263,0
              106.8231723,-6.3064453,0
              106.8223921,-6.3066263,0
              106.8203893,-6.306497,0
              106.8203373,-6.3057473,0
              106.8162278,-6.305101,0
            </coordinates>
          </LinearRing>
        </outerBoundaryIs>
      </Polygon>
    </Placemark>
  </Document>
</kml>
