<?xml version="1.0" encoding="UTF-8"?>
<kml xmlns="http://www.opengis.net/kml/2.2">
  <Document>
    <name>Taman Mini Indonesia Indah</name>
    <Style id="poly-000000-1200-77-nodesc-normal">
      <LineStyle>
        <color>ff000000</color>
        <width>1.2</width>
      </LineStyle>
      <PolyStyle>
        <color>4d000000</color>
        <fill>1</fill>
        <outline>1</outline>
      </PolyStyle>
      <BalloonStyle>
        <text><![CDATA[<h3>$[name]</h3>]]></text>
      </BalloonStyle>
    </Style>
    <Style id="poly-000000-1200-77-nodesc-highlight">
      <LineStyle>
        <color>ff000000</color>
        <width>1.8</width>
      </LineStyle>
      <PolyStyle>
        <color>4d000000</color>
        <fill>1</fill>
        <outline>1</outline>
      </PolyStyle>
      <BalloonStyle>
        <text><![CDATA[<h3>$[name]</h3>]]></text>
      </BalloonStyle>
    </Style>
    <StyleMap id="poly-000000-1200-77-nodesc">
      <Pair>
        <key>normal</key>
        <styleUrl>#poly-000000-1200-77-nodesc-normal</styleUrl>
      </Pair>
      <Pair>
        <key>highlight</key>
        <styleUrl>#poly-000000-1200-77-nodesc-highlight</styleUrl>
      </Pair>
    </StyleMap>
    <Placemark>
      <name>Taman Mini Indonesia Indah
</name>
      <styleUrl>#poly-000000-1200-77-nodesc</styleUrl>
      <Polygon>
        <outerBoundaryIs>
          <LinearRing>
            <tessellate>1</tessellate>
            <coordinates>
              106.8814008,-6.2940285,0
              106.8839536,-6.301041,0
              106.884734,-6.302728,0
              106.8861153,-6.3039031,0
              106.8879686,-6.3049076,0
              106.889307,-6.3048884,0
              106.8914393,-6.3037175,0
              106.900831,-6.3034732,0
              106.9037797,-6.3033695,0
              106.9045169,-6.3023838,0
              106.903795,-6.3008863,0
              106.8994329,-6.3009624,0
              106.8981206,-6.2999018,0
              106.8985215,-6.2980154,0
              106.8937726,-6.2974086,0
              106.8907121,-6.2965362,0
              106.8890388,-6.2929059,0
              106.8881285,-6.290786,0
              106.8846172,-6.2910962,0
              106.8806118,-6.2904758,0
              106.8814008,-6.2940285,0
            </coordinates>
          </LinearRing>
        </outerBoundaryIs>
      </Polygon>
    </Placemark>
  </Document>
</kml>
