<?xml version="1.0" encoding="UTF-8"?>
<kml xmlns="http://www.opengis.net/kml/2.2">
  <Document>
    <name>Tebet Eco Park</name>
    <Style id="poly-000000-1200-77-nodesc-normal">
      <LineStyle>
        <color>ff000000</color>
        <width>1.2</width>
      </LineStyle>
      <PolyStyle>
        <color>4d000000</color>
        <fill>1</fill>
        <outline>1</outline>
      </PolyStyle>
      <BalloonStyle>
        <text><![CDATA[<h3>$[name]</h3>]]></text>
      </BalloonStyle>
    </Style>
    <Style id="poly-000000-1200-77-nodesc-highlight">
      <LineStyle>
        <color>ff000000</color>
        <width>1.8</width>
      </LineStyle>
      <PolyStyle>
        <color>4d000000</color>
        <fill>1</fill>
        <outline>1</outline>
      </PolyStyle>
      <BalloonStyle>
        <text><![CDATA[<h3>$[name]</h3>]]></text>
      </BalloonStyle>
    </Style>
    <StyleMap id="poly-000000-1200-77-nodesc">
      <Pair>
        <key>normal</key>
        <styleUrl>#poly-000000-1200-77-nodesc-normal</styleUrl>
      </Pair>
      <Pair>
        <key>highlight</key>
        <styleUrl>#poly-000000-1200-77-nodesc-highlight</styleUrl>
      </Pair>
    </StyleMap>
    <Placemark>
      <name>Tebet Eco Park</name>
      <styleUrl>#poly-000000-1200-77-nodesc</styleUrl>
      <Polygon>
        <outerBoundaryIs>
          <LinearRing>
            <tessellate>1</tessellate>
            <coordinates>
              106.8507867,-6.2328106,0
              106.8507737,-6.2329528,0
              106.8506437,-6.2338965,0
              106.8508778,-6.2345041,0
              106.8524383,-6.23559,0
              106.8526724,-6.236314,0
              106.8521114,-6.2382733,0
              106.8517558,-6.2398396,0
              106.8527735,-6.2421311,0
              106.8533843,-6.2414211,0
              106.8527934,-6.2402845,0
              106.8532854,-6.2382672,0
              106.8534662,-6.2373271,0
              106.8535827,-6.2363657,0
              106.8532966,-6.2346593,0
              106.8528935,-6.2346463,0
              106.8526984,-6.2335604,0
              106.8522043,-6.2333794,0
              106.8520612,-6.2335345,0
              106.851359,-6.2335087,0
              106.851463,-6.2330562,0
              106.8507867,-6.2328106,0
            </coordinates>
          </LinearRing>
        </outerBoundaryIs>
      </Polygon>
    </Placemark>
  </Document>
</kml>
